[Satellite]
VERSION=1.1
NAME=COSMOS 2476 (744)
NICKNAME=COSMOS 2476 (744)
TLE1=1 37867U 11064A   15055.32331490  .00000061  00000-0  00000+0 0  9990
TLE2=2 37867  64.5104 212.7960 0014020 249.9015 298.1794  2.13102070 25785
